#dV2023  1  3 10  0  0.00000000    1682       CTS   FIT  GFZ
## 2243 208800.00000000    30.00000000 59947 0.4166666666667
+    1   L64  0  0  0  0  0  0  0  0  0  0  0  0  0  0  0  0
+          0  0  0  0  0  0  0  0  0  0  0  0  0  0  0  0  0
+          0  0  0  0  0  0  0  0  0  0  0  0  0  0  0  0  0
+          0  0  0  0  0  0  0  0  0  0  0  0  0  0  0  0  0
+          0  0  0  0  0  0  0  0  0  0  0  0  0  0  0  0  0
++         0  0  0  0  0  0  0  0  0  0  0  0  0  0  0  0  0
++         0  0  0  0  0  0  0  0  0  0  0  0  0  0  0  0  0
++         0  0  0  0  0  0  0  0  0  0  0  0  0  0  0  0  0
++         0  0  0  0  0  0  0  0  0  0  0  0  0  0  0  0  0
++         0  0  0  0  0  0  0  0  0  0  0  0  0  0  0  0  0
%c L  cc GPS ccc cccc cccc cccc cccc ccccc ccccc ccccc ccccc
%c cc cc ccc ccc cccc cccc cccc cccc ccccc ccccc ccccc ccccc
%f  0.0000000  0.000000000  0.00000000000  0.000000000000000
%f  0.0000000  0.000000000  0.00000000000  0.000000000000000
%i    0    0    0    0      0      0      0      0         0
%i    0    0    0    0      0      0      0      0         0
/* CCCCCCCCCCCCCCCCCCCCCCCCCCCCCCCCCCCCCCCCCCCCCCCCCCCCCCCCCCCCCCCCCCCCCCCCCCCCC
/* C                             GFZ RSO-ORBIT                                 C
/* C DOI: https://doi.org/10.5880/GFZ_ORBIT/RSO/L64_G_v02                      C
/* C                                                                           C
/* C DORIS        RMS: not applicable                                          C
/* C GNSS-E Code  RMS: not applicable                                          C
/* C GNSS-E Phase RMS: not applicable                                          C
/* C GNSS-G Code  RMS:  47.774 [cm]   Obs.acc.:     13949 Obs.eli.:      1287  C
/* C GNSS-G Phase RMS:   3.788 [mm]   Obs.acc.:     13949 Obs.eli.:      1287  C
/* C SLR          RMS:   2.369 [cm]   Obs.acc.:       123 Obs.eli.:         0  C
/* C                                                                           C
/* CCCCCCCCCCCCCCCCCCCCCCCCCCCCCCCCCCCCCCCCCCCCCCCCCCCCCCCCCCCCCCCCCCCCCCCCCCCCC
*  2023  1  3 16 48  0.00000000
PL64   6529.991489   1940.788975    860.337580  17838.041936
VL64  -8145.144807  -6190.386565  75627.273798 999999.999999
*  2023  1  3 16 48 30.00000000
PL64   6501.911742   1921.207995   1086.698765  17838.500699
VL64 -10573.436769  -6860.622433  75266.192139 999999.999999
*  2023  1  3 16 49  0.00000000
PL64   6466.559766   1899.643461   1311.851011  17838.959609
VL64 -12992.831651  -7512.638951  74821.392081 999999.999999
*  2023  1  3 16 49 30.00000000
PL64   6423.966437   1876.151067   1535.543907  17839.418665
VL64 -15400.541186  -8145.751107  74293.384778 999999.999999
*  2023  1  3 16 50  0.00000000
PL64   6374.170981   1850.788511   1757.528717  17839.877519
VL64 -17793.789094  -8759.308399  73682.777656 999999.999999
*  2023  1  3 16 50 30.00000000
PL64   6317.220925   1823.615388   1977.558673  17840.336509
VL64 -20169.815832  -9352.695561  72990.273364 999999.999999
*  2023  1  3 16 51  0.00000000
PL64   6253.172047   1794.693089   2195.389252  17840.795787
VL64 -22525.882275  -9925.332332  72216.667032 999999.999999
*  2023  1  3 16 51 30.00000000
PL64   6182.088310   1764.084691   2410.778455  17841.255218
VL64 -24859.270830 -10476.673299  71362.844271 999999.999999
*  2023  1  3 16 52  0.00000000
PL64   6104.041796   1731.854856   2623.487075  17841.714508
VL64 -27167.286247 -11006.208955  70429.782192 999999.999999
*  2023  1  3 16 52 30.00000000
PL64   6019.112634   1698.069716   2833.278976  17842.173700
VL64 -29447.260800 -11513.466837  69418.551007 999999.999999
*  2023  1  3 16 53  0.00000000
PL64   5927.388906   1662.796769   3039.921370  17842.632850
VL64 -31696.561231 -11998.012025  68330.311443 999999.999999
*  2023  1  3 16 53 30.00000000
PL64   5828.966538   1626.104755   3243.185081  17843.092435
VL64 -33912.591608 -12459.447328  67166.310472 999999.999999
*  2023  1  3 16 54  0.00000000
PL64   5723.949186   1588.063555   3442.844801  17843.551738
VL64 -36092.794597 -12897.413430  65927.880057 999999.999999
*  2023  1  3 16 54 30.00000000
PL64   5612.448114   1548.744066   3638.679345  17844.011148
VL64 -38234.655356 -13311.589598  64616.436264 999999.999999
*  2023  1  3 16 55  0.00000000
PL64   5494.582065   1508.218091   3830.471899  17844.470418
VL64 -40335.705712 -13701.693997  63233.475849 999999.999999
*  2023  1  3 16 55 30.00000000
PL64   5370.477112   1466.558219   4018.010255  17844.929721
VL64 -42393.526108 -14067.482678  61780.572868 999999.999999
*  2023  1  3 16 56  0.00000000
PL64   5240.266510   1423.837719   4201.087041  17845.389276
VL64 -44405.747108 -14408.748252  60259.376647 999999.999999
*  2023  1  3 16 56 30.00000000
PL64   5104.090548   1380.130425   4379.499943  17845.848895
VL64 -46370.050711 -14725.319969  58671.610396 999999.999999
*  2023  1  3 16 57  0.00000000
PL64   4962.096390   1335.510627   4553.051928  17846.308214
VL64 -48284.171711 -15017.065359  57019.071273 999999.999999
*  2023  1  3 16 57 30.00000000
PL64   4814.437910   1290.052953   4721.551466  17846.767305
VL64 -50145.902766 -15283.891545  55303.630350 999999.999999
*  2023  1  3 16 58  0.00000000
PL64   4661.275509   1243.832251   4884.812746  17847.226441
VL64 -51953.100203 -15525.745546  53527.227504 999999.999999
*  2023  1  3 16 58 30.00000000
PL64   4502.775925   1196.923468   5042.655871  17847.685473
VL64 -53703.683964 -15742.612388  51691.866355 999999.999999
*  2023  1  3 16 59  0.00000000
PL64   4339.112037   1149.401544   5194.907051  17848.144572
VL64 -55395.638244 -15934.512917  49799.614564 999999.999999
*  2023  1  3 16 59 30.00000000
PL64   4170.462674   1101.341301   5341.398796  17848.603695
VL64 -57027.015967 -16101.504328  47852.602547 999999.999999
*  2023  1  3 17  0  0.00000000
PL64   3997.012395   1052.817334   5481.970093  17849.062928
VL64 -58595.942704 -16243.680730  45853.018975 999999.999999
*  2023  1  3 17  0 30.00000000
PL64   3818.951271   1003.903902   5616.466578  17849.522289
VL64 -60100.618304 -16361.172566  43803.105198 999999.999999
*  2023  1  3 17  1  0.00000000
PL64   3636.474666    954.674819   5744.740683  17849.981616
VL64 -61539.315716 -16454.145620  41705.151908 999999.999999
*  2023  1  3 17  1 30.00000000
PL64   3449.783011    905.203348   5866.651788  17850.441119
VL64 -62910.381937 -16522.799935  39561.498658 999999.999999
*  2023  1  3 17  2  0.00000000
PL64   3259.081584    855.562106   5982.066360  17850.900498
VL64 -64212.240674 -16567.368824  37374.531202 999999.999999
*  2023  1  3 17  2 30.00000000
PL64   3064.580276    805.822956   6090.858089  17851.359833
VL64 -65443.392981 -16588.117794  35146.678815 999999.999999
*  2023  1  3 17  3  0.00000000
PL64   2866.493356    756.056922   6192.908018  17851.819201
VL64 -66602.418829 -16585.344409  32880.413156 999999.999999
*  2023  1  3 17  3 30.00000000
PL64   2665.039231    706.334083   6288.104664 999999.999999
VL64 -67687.979395 -16559.378668  30578.245165 999999.999999
*  2023  1  3 17  4  0.00000000
PL64   2460.440204    656.723482   6376.344132  17852.737901
VL64 -68698.817767 -16510.582382  28242.721420 999999.999999
*  2023  1  3 17  4 30.00000000
PL64   2252.922224    607.293028   6457.530216  17853.197070
VL64 -69633.759680 -16439.347798  25876.422109 999999.999999
*  2023  1  3 17  5  0.00000000
PL64   2042.714635    558.109413   6531.574500  17853.656265
VL64 -70491.715443 -16346.096230  23481.959118 999999.999999
*  2023  1  3 17  5 30.00000000
PL64   1830.049923    509.238020   6598.396447  17854.115455
VL64 -71271.681983 -16231.276684  21061.972999 999999.999999
*  2023  1  3 17  6  0.00000000
PL64   1615.163451    460.742846   6657.923480  17854.574606
VL64 -71972.743930 -16095.365121  18619.129508 999999.999999
*  2023  1  3 17  6 30.00000000
PL64   1398.293194    412.686419   6710.091053  17855.033921
VL64 -72594.074336 -15938.864302  16156.116231 999999.999999
*  2023  1  3 17  7  0.00000000
PL64   1179.679478    365.129721   6754.842713  17855.493127
VL64 -73134.934747 -15762.302951  13675.639085 999999.999999
*  2023  1  3 17  7 30.00000000
PL64    959.564709    318.132109   6792.130146  17855.952345
VL64 -73594.674957 -15566.234578  11180.420109 999999.999999
*  2023  1  3 17  8  0.00000000
PL64    738.193112    271.751244   6821.913227  17856.411470
VL64 -73972.734054 -15351.236713   8673.195199 999999.999999
*  2023  1  3 17  8 30.00000000
PL64    515.810459    226.043019   6844.160057  17856.870603
VL64 -74268.641182 -15117.909569   6156.710759 999999.999999
*  2023  1  3 17  9  0.00000000
PL64    292.663801    181.061495   6858.846987  17857.329712
VL64 -74482.015669 -14866.874552   3633.721401 999999.999999
*  2023  1  3 17  9 30.00000000
PL64     69.001191    136.858838   6865.958641  17857.788831
VL64 -74612.567878 -14598.773647   1106.987450 999999.999999
*  2023  1  3 17 10  0.00000000
PL64   -154.928583     93.485258   6865.487929  17858.248000
VL64 -74660.099574 -14314.268284  -1420.728714 999999.999999
*  2023  1  3 17 10 30.00000000
PL64   -378.876276     50.988955   6857.436048  17858.707190
VL64 -74624.503446 -14014.037532  -3946.665594 999999.999999
*  2023  1  3 17 11  0.00000000
PL64   -602.592456      9.416064   6841.812474  17859.166242
VL64 -74505.762904 -13698.776895  -6468.064327 999999.999999
*  2023  1  3 17 11 30.00000000
PL64   -825.827781    -31.189388   6818.634954  17859.625106
VL64 -74303.952940 -13369.197593  -8982.170803 999999.999999
*  2023  1  3 17 12  0.00000000
PL64  -1048.333269    -70.785529   6787.929487  17860.084075
VL64 -74019.240600 -13026.025789 -11486.239456 999999.999999
*  2023  1  3 17 12 30.00000000
PL64  -1269.860577   -109.332689   6749.730290  17860.543126
VL64 -73651.883629 -12670.001457 -13977.536785 999999.999999
*  2023  1  3 17 13  0.00000000
PL64  -1490.162270   -146.793437   6704.079758  17861.002231
VL64 -73202.229551 -12301.876888 -16453.342794 999999.999999
EOF
